FLOCK 4G-23             
1 62647U 25009AQ  26068.71663397  .00012440  00000+0  46816-3 0  9993
2 62647  97.3979 150.9478 0000905   7.2707 352.8545 15.27262579 63728
STARLINK-35803          
1 66568U 25268M   26068.09958189  .00042377  00000+0  15410-2 0  9990
2 66568  43.0033 350.0373 0001878 251.0604 109.0044 15.27571654 17873
